{
  "norad_id": 58694,
  "name": "XPOSAT",
  "history": [
    {
      "epoch": "2026-03-17T18:23:56.631552",
      "apogee_km": 639.0897955799828,
      "perigee_km": 625.3550993505087,
      "latitude_deg": 0.10884789284940719,
      "longitude_deg": 146.99625727999955,
      "semi_major_axis_km": 7010.3594474652455,
      "eccentricity": 0.0009796,
      "inclination_deg": 5.9864,
      "raan_deg": 122.0271,
      "arg_perigee_deg": 264.8528,
      "mean_anomaly_deg": 95.0481,
      "mean_motion_rev_day": 14.79082274
    }
  ]
}