{"fetched_at":"2026-03-29T02:12:04Z","count":15717,"tles":[{"name":"XPOSAT","line1":"1 58694U 24001A   26076.76662768  .00001916  00000+0  16662-3 0  9998","line2":"2 58694   5.9864 122.0271 0009796 264.8528  95.0481 14.79082274119469","category":"Other"}]}